NORAD_CAT_ID,OBJECT_NAME,OBJECT_TYPE,EPOCH,MEAN_MOTION,ECCENTRICITY,INCLINATION,RA_OF_ASC_NODE,ARG_OF_PERICENTER,MEAN_ANOMALY,BSTAR,MEAN_MOTION_DOT,MEAN_MOTION_DDOT,TLE_LINE0,TLE_LINE1,TLE_LINE2,SEMIMAJOR_AXIS,PERIOD,APOGEE,PERIGEE,DECAYED
49137.0,STARLINK-3055,PAYLOAD,2022-06-04 04:51:33,14.96717537,0.0002995,69.9989,139.4884,273.491,86.5906,-0.00027651,-3.255e-05,0.0,0 STARLINK-3055,1 49137U 21082H   22155.20246774 -.00003255  00000-0 -27651-3 0  9995,2 49137  69.9989 139.4884 0002995 273.4910  86.5906 14.96717537 40608,6955.184,96.211,579.132,574.966,0.0
49137.0,STARLINK-3055,PAYLOAD,2022-06-04 09:40:16,14.96709033,0.0003077,69.9991,138.984,270.1682,89.9123,-6.6771e-05,-8.56e-06,0.0,0 STARLINK-3055,1 49137U 21082H   22155.40296636 -.00000856  00000-0 -66771-4 0  9990,2 49137  69.9991 138.9840 0003077 270.1682  89.9123 14.96709033 40632,6955.21,96.211,579.215,574.935,0.0
49137.0,STARLINK-3055,PAYLOAD,2022-06-05 22:00:00,14.96708674,0.0002985,70.0012,135.1771,266.296,327.533,0.0047829,0.00055076,0.0,0 STARLINK-3055,1 49137U 21082H   22156.91667824  .00055076  00000-0  47829-2 0  9991,2 49137  70.0012 135.1771 0002985 266.2960 327.5330 14.96708674 40858,6955.2109999999975,96.211,579.1519999999998,575.0,0.0
49137.0,STARLINK-3055,PAYLOAD,2022-06-06 14:00:01,14.96758143,0.0002966,70.0009,133.5002,271.4926,313.4687,-0.0042989,-0.00049006,0.0,0 STARLINK-3055,1 49137U 21082H   22157.58334491 -.00049006  00000-0 -42989-2 0  9996,2 49137  70.0009 133.5002 0002966 271.4926 313.4687 14.96758143 40958,6955.058000000001,96.208,578.986,574.86,0.0
49137.0,STARLINK-3055,PAYLOAD,2022-06-06 20:00:01,14.96711231,0.0003007,70.0011,132.8715,266.7684,224.8849,0.0052765,0.00060824,0.0,0 STARLINK-3055,1 49137U 21082H   22157.83334491  .00060824  00000-0  52765-2 0  9996,2 49137  70.0011 132.8715 0003007 266.7684 224.8849 14.96711231 40995,6955.203,96.211,579.16,574.977,0.0
49137.0,STARLINK-3055,PAYLOAD,2022-06-07 05:02:15,14.96726934,0.0002842,69.9996,131.9242,267.7183,92.3649,0.00036761,4.120000000000001e-05,0.0,0 STARLINK-3055,1 49137U 21082H   22158.20990340  .00004120  00000-0  36761-3 0  9995,2 49137  69.9996 131.9242 0002842 267.7183  92.3649 14.96726934 41050,6955.155,96.21,578.996,575.043,0.0
49137.0,STARLINK-3055,PAYLOAD,2022-06-07 08:14:44,14.96731314,0.0002898999999999,69.9992,131.5882,269.8263,90.2563,0.0003509,3.929e-05,0.0,0 STARLINK-3055,1 49137U 21082H   22158.34356550  .00003929  00000-0  35090-3 0  9999,2 49137  69.9992 131.5882 0002899 269.8263  90.2563 14.96731314 41078,6955.141,96.21,579.0219999999998,574.99,0.0
49137.0,STARLINK-3055,PAYLOAD,2022-06-07 21:04:37,14.96738731,0.0002793,70.0004,130.2434,270.9304,89.1534,0.00033219,3.715e-05,0.0,0 STARLINK-3055,1 49137U 21082H   22158.87821625  .00003715  00000-0  33219-3 0  9991,2 49137  70.0004 130.2434 0002793 270.9304  89.1534 14.96738731 41150,6955.118,96.209,578.9259999999998,575.0409999999998,0.0
49137.0,STARLINK-3055,PAYLOAD,2022-06-08 01:53:20,14.96746593,0.0002661,70.0005,129.7392,273.8278,86.2576,-0.00020754,-2.468e-05,0.0,0 STARLINK-3055,1 49137U 21082H   22159.07870471 -.00002468  00000-0 -20754-3 0  9993,2 49137  70.0005 129.7392 0002661 273.8278  86.2576 14.96746593 41185,6955.094,96.209,578.81,575.1080000000002,0.0
49137.0,STARLINK-3055,PAYLOAD,2022-06-08 08:18:18,14.96727053,0.0002889,69.9994,129.0663,267.3568,92.726,2.4975e-05,1.94e-06,0.0,0 STARLINK-3055,1 49137U 21082H   22159.34604367  .00000194  00000-0  24975-4 0  9994,2 49137  69.9994 129.0663 0002889 267.3568  92.7260 14.96727053 41222,6955.154,96.21,579.029,575.01,0.0
49137.0,STARLINK-3055,PAYLOAD,2022-06-08 14:43:14,14.96740399,0.000292,69.9997,128.3946,273.0794,87.00299999999999,-0.00020037,-2.386e-05,0.0,0 STARLINK-3055,1 49137U 21082H   22159.61336323 -.00002386  00000-0 -20037-3 0  9999,2 49137  69.9997 128.3946 0002920 273.0794  87.0030 14.96740399 41266,6955.113,96.209,579.009,574.947,0.0
49137.0,STARLINK-3055,PAYLOAD,2022-06-09 08:21:51,14.96750228,0.0002979,69.9999,126.5455,271.7888,88.2929,-0.0004981,-5.793e-05,0.0,0 STARLINK-3055,1 49137U 21082H   22160.34850718 -.00005793  00000-0 -49810-3 0  9995,2 49137  69.9999 126.5455 0002979 271.7888  88.2929 14.96750228 41370,6955.083000000001,96.208,579.019,574.876,0.0
49137.0,STARLINK-3055,PAYLOAD,2022-06-09 21:11:46,14.96713146,0.0002938,69.9994,125.2012,268.8972,91.185,-2.6273e-05,-3.92e-06,0.0,0 STARLINK-3055,1 49137U 21082H   22160.88317665 -.00000392  00000-0 -26273-4 0  9992,2 49137  69.9994 125.2012 0002938 268.8972  91.1850 14.96713146 41459,6955.196999999999,96.211,579.106,575.019,0.0
49137.0,STARLINK-3055,PAYLOAD,2022-06-10 03:36:43,14.96714036,0.0002923,69.9994,124.5289,268.7897,91.2926,-1.3562e-05,-2.47e-06,0.0,0 STARLINK-3055,1 49137U 21082H   22161.15050416 -.00000247  00000-0 -13562-4 0  9997,2 49137  69.9994 124.5289 0002923 268.7897  91.2926 14.96714036 41494,6955.195,96.211,579.0930000000002,575.0269999999998,0.0
49137.0,STARLINK-3055,PAYLOAD,2022-06-10 21:15:20,14.96716821,0.000282,69.9985,122.6794,268.8941,91.1894,3.3124e-05,2.88e-06,0.0,0 STARLINK-3055,1 49137U 21082H   22161.88565447  .00000288  00000-0  33124-4 0  9991,2 49137  69.9985 122.6794 0002820 268.8941  91.1894 14.96716821 41601,6955.186,96.211,579.012,575.09,0.0
49137.0,STARLINK-3055,PAYLOAD,2022-06-11 21:18:54,14.96718123,0.000282,69.9995,120.159,269.0812,91.0023,0.00018017,1.971e-05,0.0,0 STARLINK-3055,1 49137U 21082H   22162.88813156  .00001971  00000-0  18017-3 0  9998,2 49137  69.9995 120.1590 0002820 269.0812  91.0023 14.96718123 41755,6955.182,96.211,579.008,575.086,0.0
49137.0,STARLINK-3055,PAYLOAD,2022-06-12 03:43:51,14.96720394,0.000283,69.9995,119.4867,269.0546,91.0288,0.00020484,2.254e-05,0.0,0 STARLINK-3055,1 49137U 21082H   22163.15545828  .00002254  00000-0  20484-3 0  9993,2 49137  69.9995 119.4867 0002830 269.0546  91.0288 14.96720394 41798,6955.175,96.21,579.008,575.072,0.0
49137.0,STARLINK-3055,PAYLOAD,2022-06-12 06:56:20,14.96722273,0.0002813,69.9995,119.1505,269.0814,91.0022,0.00022502,2.485e-05,0.0,0 STARLINK-3055,1 49137U 21082H   22163.28912074  .00002485  00000-0  22502-3 0  9997,2 49137  69.9995 119.1505 0002813 269.0814  91.0022 14.96722273 41810,6955.169,96.21,578.991,575.078,0.0
49137.0,STARLINK-3055,PAYLOAD,2022-06-12 21:22:27,14.96730236,0.0002822,69.9996,117.6379,268.7448,91.3387,0.00026354,2.927e-05,0.0,0 STARLINK-3055,1 49137U 21082H   22163.89060170  .00002927  00000-0  26354-3 0  9995,2 49137  69.9996 117.6379 0002822 268.7448  91.3387 14.96730236 41907,6955.144,96.21,578.972,575.047,0.0
49137.0,STARLINK-3055,PAYLOAD,2022-06-13 05:23:39,14.96724879,0.0002815,70.0007,116.797,269.2974,90.7862,0.00014794,1.602e-05,0.0,0 STARLINK-3055,1 49137U 21082H   22164.22476441  .00001602  00000-0  14794-3 0  9999,2 49137  70.0007 116.7970 0002815 269.2974  90.7862 14.96724879 41954,6955.161,96.21,578.984,575.068,0.0
49137.0,STARLINK-3055,PAYLOAD,2022-06-13 06:59:54,14.96721881,0.0002839,70.0007,116.629,269.5296,90.5537,7.757e-05,7.97e-06,0.0,0 STARLINK-3055,1 49137U 21082H   22164.29159749  .00000797  00000-0  77570-4 0  9991,2 49137  70.0007 116.6290 0002839 269.5296  90.5537 14.96721881 41962,6955.17,96.21,579.01,575.061,0.0
49137.0,STARLINK-3055,PAYLOAD,2022-06-13 21:26:02,14.96723767,0.0002852,70.0007,115.1163,269.2527,90.8304,5.7174e-05,5.63e-06,0.0,0 STARLINK-3055,1 49137U 21082H   22164.89308159  .00000563  00000-0  57174-4 0  9997,2 49137  70.0007 115.1163 0002852 269.2527  90.8304 14.96723767 42055,6955.1640000000025,96.21,579.013,575.0459999999998,0.0
49137.0,STARLINK-3055,PAYLOAD,2022-06-14 05:27:13,14.96727259,0.0002866,69.9997,114.2761,269.2227,90.8603,9.1867e-05,9.6e-06,0.0,0 STARLINK-3055,1 49137U 21082H   22165.22723981  .00000960  00000-0  91867-4 0  9997,2 49137  69.9997 114.2761 0002866 269.2227  90.8603 14.96727259 42104,6955.154,96.21,579.012,575.025,0.0
49137.0,STARLINK-3055,PAYLOAD,2022-06-14 13:28:25,14.9671733,0.0002878,69.9995,113.4355,269.137,90.9459,-8.0764e-05,-1.016e-05,0.0,0 STARLINK-3055,1 49137U 21082H   22165.56140745 -.00001016  00000-0 -80764-4 0  9994,2 49137  69.9995 113.4355 0002878 269.1370  90.9459 14.96717330 42157,6955.184,96.211,579.0509999999998,575.048,0.0
49137.0,STARLINK-3055,PAYLOAD,2022-06-14 21:29:36,14.96717619,0.0002921999999999,69.9994,112.595,268.8466,91.2358,-4.0253e-05,-5.52e-06,0.0,0 STARLINK-3055,1 49137U 21082H   22165.89556544 -.00000552  00000-0 -40253-4 0  9991,2 49137  69.9994 112.5950 0002922 268.8466  91.2358 14.96717619 42207,6955.184,96.211,579.081,575.016,0.0
49137.0,STARLINK-3055,PAYLOAD,2022-06-15 13:31:59,14.96718887,0.0002878999999999,69.9995,110.9143,268.9311,91.1518,9.0829e-05,9.48e-06,0.0,0 STARLINK-3055,1 49137U 21082H   22166.56388058  .00000948  00000-0  90829-4 0  9990,2 49137  69.9995 110.9143 0002879 268.9311  91.1518 14.96718887 42301,6955.18,96.21,579.047,575.0419999999998,0.0
49137.0,STARLINK-3055,PAYLOAD,2022-06-16 00:45:38,14.9672326,0.0002843,69.9995,109.7372,269.0158,91.0675,0.00010282,1.086e-05,0.0,0 STARLINK-3055,1 49137U 21082H   22167.03170049  .00001086  00000-0  10282-3 0  9990,2 49137  69.9995 109.7372 0002843 269.0158  91.0675 14.96723260 42374,6955.166,96.21,579.008,575.054,0.0
49137.0,STARLINK-3055,PAYLOAD,2022-06-19 12:10:02,14.96707486,0.0002798,70.0002,100.998,267.4874,92.5964,0.00012308,1.317e-05,0.0,0 STARLINK-3055,1 49137U 21082H   22170.50697576  .00001317  00000-0  12308-3 0  9993,2 49137  70.0002 100.9980 0002798 267.4874  92.5964 14.96707486 42896,6955.215,96.211,579.026,575.134,0.0
49137.0,STARLINK-3055,PAYLOAD,2022-06-19 18:34:59,14.96712241,0.0002773,70.0001,100.3257,267.204,92.8801,0.00010371,1.096e-05,0.0,0 STARLINK-3055,1 49137U 21082H   22170.77430207  .00001096  00000-0  10371-3 0  9990,2 49137  70.0001 100.3257 0002773 267.2040  92.8801 14.96712241 42935,6955.2,96.211,578.994,575.137,0.0
